0 COSMOS 1275 DEB
1 12719U 81053BL  13282.08398266  .00000649  00000-0  52044-3 0  1602
2 12719 082.9592 320.1156 0016406 350.6494 038.3120 13.89203362625178
0 COSMOS 1275 DEB
1 12719U 81053BL  13283.17054292  .00000667  00000-0  53558-3 0  1613
2 12719 082.9591 319.2931 0016395 347.2312 072.6554 13.89204594625333
0 COSMOS 1275 DEB
1 12719U 81053BL  13286.19673019  .00000541  00000-0  43195-3 0  1631
2 12719 082.9585 317.0025 0016356 337.8019 087.8116 13.89206642625756
0 COSMOS 1275 DEB
1 12719U 81053BL  13287.20564649  .00000508  00000-0  40477-3 0  1646
2 12719 082.9582 316.2386 0016365 334.7124 093.7503 13.89206885625897
0 COSMOS 1275 DEB
1 12719U 81053BL  13288.51901559  .00000500  00000-0  39785-3 0  1659
2 12719 082.9581 315.2443 0016345 330.7814 182.2743 13.89207831626072
0 COSMOS 1275 DEB
1 12719U 81053BL  13289.52719517  .00000361  00000-0  28384-3 0  1661
2 12719 082.9580 314.4809 0016336 327.7040 184.5236 13.89208682626218
0 COSMOS 1275 DEB
1 12719U 81053BL  13290.53570655  .00000352  00000-0  27683-3 0  1674
2 12719 082.9580 313.7172 0016300 324.6655 188.3957 13.89209136626354
0 COSMOS 1275 DEB
1 12719U 81053BL  13291.53766454  .00000327  00000-0  25635-3 0  1687
2 12719 082.9580 312.9584 0016222 321.6873 159.4558 13.89209907626491
0 COSMOS 1275 DEB
1 12719U 81053BL  13292.83352149  .00000362  00000-0  28492-3 0  1697
2 12719 082.9581 311.9771 0016161 317.7933 160.4303 13.89210548626677
0 COSMOS 1275 DEB
1 12719U 81053BL  13293.84153020  .00000394  00000-0  31149-3 0  1706
2 12719 082.9582 311.2138 0016149 314.7370 161.8177 13.89211283626813
0 COSMOS 1275 DEB
1 12719U 81053BL  13295.12780319  .00000429  00000-0  34009-3 0  1714
2 12719 082.9582 310.2399 0016145 310.8269 114.9107 13.89212560626991
